PROMETHEUS 2-3          
1 41855U 16067H   25188.57773686  .00041887  00000+0  72997-3 0  9990
2 41855  98.0673  44.3924 0006363 144.8427 215.3244 15.50609916474741
CORVUS BC2              
1 42846U 17042X   25188.73777784  .00002465  00000+0  18667-3 0  9999
2 42846  97.3765 359.9759 0013442 199.5438 160.5274 15.03094301435264
CORVUS BC1              
1 42847U 17042Y   25188.91726544  .00001713  00000+0  13025-3 0  9996
2 42847  97.3772   0.7045 0012606 176.7823 183.3486 15.03331787435314
MIRATA                  
1 43015U 17073C   25188.94954119  .00068138  00000+0  97723-3 0  9993
2 43015  97.5362  85.1062 0071512 343.4019  16.4893 15.52904997415203
MAKERSAT 0              
1 43016U 17073D   25188.13207741  .00017142  00000+0  67293-3 0  9995
2 43016  97.5166  66.0528 0146196  45.3650 315.9394 15.16347425413917
SIRION PATHFINDER-2     
1 43759U 18099B   25188.87729663  .00003674  00000+0  22893-3 0  9993
2 43759  97.4765 241.1253 0010876  55.4935 304.7320 15.10124357360589
CORVUS BC4              
1 43767U 18099K   25188.87133134  .00003499  00000+0  22754-3 0  9995
2 43767  97.4578 236.8049 0010706 105.5843 254.6569 15.08580578360420
MOVE-II                 
1 43780U 18099Y   25188.72454549  .01067096  59921-3  18212-2 0  9997
2 43780  97.4590 266.9699 0010519 250.0357 109.9790 16.02573702362260
SPACEBEE-7              
1 43816U 18099BL  25188.91870920  .00022511  00000+0  60816-3 0  9993
2 43816  97.4950 259.7036 0005394  28.6045 331.5494 15.37744463361155
SHIELDS 1               
1 43850U 18104B   25188.56488346  .00026119  00000+0  29130-3 0  9998
2 43850  85.0128  16.8164 0007311  52.0022 308.1901 15.62621813365826
DUCHIFAT-3              
1 44854U 19089C   25188.04354977  .00035908  00000+0  65373-3 0  9996
2 44854  36.9403 180.3029 0005487 202.8342 157.2172 15.48550630307271
M2 PATHFINDER           
1 45727U 20037E   25188.38100078  .00002483  00000+0  19239-3 0  9991
2 45727  97.8166  11.2350 0011772 231.1811 128.8363 15.02330223273689
NETSAT-4                
1 46504U 20068U   25188.91403333  .00008527  00000+0  28739-3 0  9998
2 46504  97.8455 168.3557 0009165 102.2202 258.0065 15.30970939262882
NETSAT-3                
1 46505U 20068V   25188.93430159  .00008797  00000+0  31041-3 0  9996
2 46505  97.8457 167.2509 0008874 110.9379 249.2811 15.29469434262845
NETSAT-1                
1 46506U 20068W   25188.88002225  .00006909  00000+0  28346-3 0  9997
2 46506  97.8486 164.8119 0008173 123.5184 236.6834 15.24556727262677
NETSAT-2                
1 46507U 20068X   25188.91145229  .00009593  00000+0  32653-3 0  9992
2 46507  97.8454 167.8224 0007307 122.1834 238.0115 15.30624529262826
WILDTRACKCUBE-SIMBA     
1 47941U 21022K   25188.92336096  .00020738  00000+0  41457-3 0  9997
2 47941  97.4203  94.1232 0008828 193.9630 166.1377 15.46784736237576
LEDSAT                  
1 49069U 21073D   25188.74161745  .00062481  00000+0  65326-3 0  9995
2 49069  97.3880 271.5274 0006883 327.4010  32.6824 15.64243425215835
GREENCUBE (IO-117)      
1 53109U 22080E   25187.98277078 -.00000003  00000+0  00000+0 0  9993
2 53109  70.1411  58.2883 0008535   3.7735 356.2988  6.42583712 69884
SITRO-AIS 5 (KATYS)     
1 57176U 23091L   25188.92892927  .00006205  00000+0  28930-3 0  9990
2 57176  97.5572 245.9293 0012913 225.9731 134.0441 15.20169926111889
SITRO-AIS 6 (CHIRKIN)   
1 57192U 23091AC  25188.91809463  .00006516  00000+0  30452-3 0  9997
2 57192  97.5570 245.9237 0012886 225.7206 134.2972 15.20071095111887
SITRO-AIS 8 (ANOKHIN)   
1 57193U 23091AD  25188.93071054  .00007095  00000+0  31760-3 0  9993
2 57193  97.5568 246.5021 0012328 224.6033 135.4212 15.21524566111922
SITRO-AIS 7 (FARTUSHNIY)
1 57194U 23091AE  25188.87575013  .00005992  00000+0  28117-3 0  9997
2 57194  97.5570 245.8159 0012661 226.4327 133.5857 15.19964520111879
SITRO-AIS 10 (BURDAEV)  
1 57199U 23091AK  25188.91467495  .00009322  00000+0  37640-3 0  9993
2 57199  97.5582 248.9607 0008776 203.8714 156.2118 15.24966572112070
SITRO-AIS 9 (SHCHUKIN)  
1 57201U 23091AM  25188.80470859  .00008475  00000+0  34453-3 0  9990
2 57201  97.5578 248.7538 0008710 204.3760 155.7066 15.24768563112059
SITRO-AIS 12 (SMIRENNIY)
1 57204U 23091AQ  25188.91429520  .00009065  00000+0  36606-3 0  9992
2 57204  97.5588 249.1589 0008792 197.3436 162.7502 15.24973400112089
SITRO-AIS 11 (SHEFFER)  
1 57208U 23091AU  25188.92905510  .00008805  00000+0  35344-3 0  9994
2 57208  97.5586 249.2707 0008653 197.4868 162.6073 15.25184281112095
VERONIKA                
1 58261U 23174F   25188.92964581  .00199007  00000+0  10900-2 0  9994
2 58261  97.4099 276.9834 0005745 251.0555 109.0089 15.79247714 93146
ROBUSTA-1E (ENSO)       
1 58470U 23185J   25188.91115016  .00044488  00000+0  57960-3 0  9998
2 58470  97.3726 264.9931 0004670 336.8619  23.2426 15.58601149 89441
SITRO-AIS 25            
1 59066U 24039R   25188.87997058  .00003782  00000+0  31794-3 0  9997
2 59066  95.3761 359.2651 0157300  88.7306 273.1932 14.89376965 73407
SITRO-AIS 26            
1 59067U 24039S   25188.90866008  .00003362  00000+0  28386-3 0  9999
2 59067  95.3763 359.2403 0157507  88.8726 273.0537 14.89230975 73401
SITRO-AIS 27            
1 59068U 24039T   25188.89749753  .00003967  00000+0  33225-3 0  9994
2 59068  95.3763 359.3666 0156800  88.2195 273.6980 14.89558060 73410
SITRO-AIS 28            
1 59071U 24039U   25188.88378018  .00004024  00000+0  33675-3 0  9993
2 59071  95.3764 359.3854 0156631  88.1859 273.7296 14.89597196 73416
GRBBETA                 
1 60237U 24128C   25188.74948562  .00003056  00000+0  23565-3 0  9991
2 60237  61.9925 341.3234 0053962  63.6180 297.0436 15.02837732 54436
OOV-CUBE (TUBSAT-30)    
1 60240U 24128F   25188.85497647  .00001836  00000+0  15753-3 0  9994
2 60240  61.9969 344.1472 0054205  60.6980 299.9511 15.00388726 54403
ROBUSTA-3A (MEDITERRAN*)
1 60243U 24128J   25188.81616887  .00005407  00000+0  38249-3 0  9995
2 60243  61.9895 339.8830 0052798  57.6541 302.9647 15.04986428 54476
LASARSAT                
1 62391U 24247Q   25188.91743184  .00010983  00000+0  42208-3 0  9990
2 62391  44.9801   5.5181 0009021 220.5942 139.4268 15.26576717 30390
CROCUBE                 
1 62394U 24247T   25188.90779278  .00011924  00000+0  45411-3 0  9990
2 62394  44.9763   5.4216 0009603 223.1398 136.8732 15.26797653 30399
